{"type": "FeatureCollection", "features": [ {"type": "Feature", "properties": {"norad_id": 32289, "name": "YAOGAN-3", "group": "resource", "lat": 19.669455956316874, "lon": 9.757185151558003, "alt_km": 598.0221629101688, "timestamp": "2025-12-11T22:43:46.928050+00:00", "meta": {"OBJECT_NAME": "YAOGAN-3", "OBJECT_ID": "2007-055A", "EPOCH": "2025-12-11T12:58:10.185888", "MEAN_MOTION": 14.89851045, "ECCENTRICITY": 0.00012438, "INCLINATION": 97.8365, "RA_OF_ASC_NODE": 12.176, "ARG_OF_PERICENTER": 74.0838, "MEAN_ANOMALY": 286.0516, "EPHEMERIS_TYPE": 0, "CLASSIFICATION_TYPE": "U", "NORAD_CAT_ID": 32289, "ELEMENT_SET_NO": 999, "REV_AT_EPOCH": 97791, "BSTAR": 0.00061895324, "MEAN_MOTION_DOT": 5.893e-05, "MEAN_MOTION_DDOT": 0}, "tle": {"line1": "1 32289U 07055A   25345.54039567  .00005893  00000+0  61895-3 0  9995", "line2": "2 32289  97.8365  12.1760 0001243  74.0838 286.0516 14.89851045977917"}}, "geometry": {"type": "Point", "coordinates": [9.757185151558003, 19.669455956316874]}}, {"type": "Feature", "properties": {"norad_id": 32376, "name": "COSMO-SKYMED 2", "group": "resource", "lat": -38.70877701094414, "lon": 173.6562190433008, "alt_km": 629.5523287313681, "timestamp": "2025-12-11T22:43:46.928063+00:00", "meta": {"OBJECT_NAME": "COSMO-SKYMED 2", "OBJECT_ID": "2007-059A", "EPOCH": "2025-12-11T14:48:17.248320", "MEAN_MOTION": 14.82164189, "ECCENTRICITY": 0.00015144, "INCLINATION": 97.8811, "RA_OF_ASC_NODE": 166.9576, "ARG_OF_PERICENTER": 84.9603, "MEAN_ANOMALY": 275.1783, "EPHEMERIS_TYPE": 0, "CLASSIFICATION_TYPE": "U", "NORAD_CAT_ID": 32376, "ELEMENT_SET_NO": 999, "REV_AT_EPOCH": 97421, "BSTAR": 0.00012360469, "MEAN_MOTION_DOT": 9.32e-06, "MEAN_MOTION_DDOT": 0}, "tle": {"line1": "1 32376U 07059A   25345.61686630  .00000932  00000+0  12360-3 0  9995", "line2": "2 32376  97.8811 166.9576 0001514  84.9603 275.1783 14.82164189974218"}}, "geometry": {"type": "Point", "coordinates": [173.6562190433008, -38.70877701094414]}}, {"type": "Feature", "properties": {"norad_id": 32382, "name": "RADARSAT-2", "group": "resource", "lat": 57.43779406198153, "lon": -23.12659366399611, "alt_km": 785.5246855912164, "timestamp": "2025-12-11T22:43:46.928074+00:00", "meta": {"OBJECT_NAME": "RADARSAT-2", "OBJECT_ID": "2007-061A", "EPOCH": "2025-12-11T14:03:38.763648", "MEAN_MOTION": 14.29980989, "ECCENTRICITY": 0.00011149, "INCLINATION": 98.5799, "RA_OF_ASC_NODE": 350.1925, "ARG_OF_PERICENTER": 85.4879, "MEAN_ANOMALY": 274.6431, "EPHEMERIS_TYPE": 0, "CLASSIFICATION_TYPE": "U", "NORAD_CAT_ID": 32382, "ELEMENT_SET_NO": 999, "REV_AT_EPOCH": 93914, "BSTAR": 3.802577e-06, "MEAN_MOTION_DOT": -3.4e-07, "MEAN_MOTION_DDOT": 0}, "tle": {"line1": "1 32382U 07061A   25345.58586532 -.00000034  00000+0  38026-5 0  9994", "line2": "2 32382  98.5799 350.1925 0001114  85.4879 274.6431 14.29980989939142"}}, "geometry": {"type": "Point", "coordinates": [-23.12659366399611, 57.43779406198153]}}, {"type": "Feature", "properties": {"norad_id": 32783, "name": "CARTOSAT-2A", "group": "resource", "lat": 68.55606610981783, "lon": -123.79952194152375, "alt_km": 627.8332677305916, "timestamp": "2025-12-11T22:43:46.928085+00:00", "meta": {"OBJECT_NAME": "CARTOSAT-2A", "OBJECT_ID": "2008-021A", "EPOCH": "2025-12-11T14:06:57.260736", "MEAN_MOTION": 14.78937205, "ECCENTRICITY": 0.00120069, "INCLINATION": 97.7928, "RA_OF_ASC_NODE": 35.4474, "ARG_OF_PERICENTER": 8.6468, "MEAN_ANOMALY": 351.4948, "EPHEMERIS_TYPE": 0, "CLASSIFICATION_TYPE": "U", "NORAD_CAT_ID": 32783, "ELEMENT_SET_NO": 999, "REV_AT_EPOCH": 95107, "BSTAR": 0.00035402, "MEAN_MOTION_DOT": 2.564e-05, "MEAN_MOTION_DDOT": 0}, "tle": {"line1": "1 32783U 08021A   25345.58816274  .00002564  00000+0  35402-3 0  9997", "line2": "2 32783  97.7928  35.4474 0012006   8.6468 351.4948 14.78937205951077"}}, "geometry": {"type": "Point", "coordinates": [-123.79952194152375, 68.55606610981783]}}, {"type": "Feature", "properties": {"norad_id": 33320, "name": "HUANJING 1A (HJ-1A)", "group": "resource", "lat": -37.38485706794181, "lon": -19.822353859640376, "alt_km": 621.2922869231752, "timestamp": "2025-12-11T22:43:46.928095+00:00", "meta": {"OBJECT_NAME": "HUANJING 1A (HJ-1A)", "OBJECT_ID": "2008-041A", "EPOCH": "2025-12-11T14:48:17.136864", "MEAN_MOTION": 14.8338834, "ECCENTRICITY": 0.00203104, "INCLINATION": 97.6547, "RA_OF_ASC_NODE": 333.9625, "ARG_OF_PERICENTER": 38.13, "MEAN_ANOMALY": 322.1347, "EPHEMERIS_TYPE": 0, "CLASSIFICATION_TYPE": "U", "NORAD_CAT_ID": 33320, "ELEMENT_SET_NO": 999, "REV_AT_EPOCH": 93059, "BSTAR": 0.00024308301, "MEAN_MOTION_DOT": 1.95e-05, "MEAN_MOTION_DDOT": 0}, "tle": {"line1": "1 33320U 08041A   25345.61686501  .00001950  00000+0  24308-3 0  9990", "line2": "2 33320  97.6547 333.9625 0020310  38.1300 322.1347 14.83388340930593"}}, "geometry": {"type": "Point", "coordinates": [-19.822353859640376, -37.38485706794181]}}, {"type": "Feature", "properties": {"norad_id": 33321, "name": "HUANJING 1B (HJ-1B)", "group": "resource", "lat": -5.762793060572619, "lon": 157.20114374163157, "alt_km": 632.1917305893821, "timestamp": "2025-12-11T22:43:46.928106+00:00", "meta": {"OBJECT_NAME": "HUANJING 1B (HJ-1B)", "OBJECT_ID": "2008-041B", "EPOCH": "2025-12-11T15:25:13.879200", "MEAN_MOTION": 14.82813317, "ECCENTRICITY": 0.00382205, "INCLINATION": 97.6404, "RA_OF_ASC_NODE": 337.6863, "ARG_OF_PERICENTER": 79.1227, "MEAN_ANOMALY": 281.4285, "EPHEMERIS_TYPE": 0, "CLASSIFICATION_TYPE": "U", "NORAD_CAT_ID": 33321, "ELEMENT_SET_NO": 999, "REV_AT_EPOCH": 93061, "BSTAR": 9.7188399e-05, "MEAN_MOTION_DOT": 7.45e-06, "MEAN_MOTION_DDOT": 0}, "tle": {"line1": "1 33321U 08041B   25345.64252175  .00000745  00000+0  97188-4 0  9998", "line2": "2 33321  97.6404 337.6863 0038220  79.1227 281.4285 14.82813317930610"}}, "geometry": {"type": "Point", "coordinates": [157.20114374163157, -5.762793060572619]}}, {"type": "Feature", "properties": {"norad_id": 33331, "name": "GEOEYE 1", "group": "resource", "lat": -42.30603411323437, "lon": -130.23345269777863, "alt_km": 683.2654609681749, "timestamp": "2025-12-11T22:43:46.928117+00:00", "meta": {"OBJECT_NAME": "GEOEYE 1", "OBJECT_ID": "2008-042A", "EPOCH": "2025-12-11T15:09:28.686528", "MEAN_MOTION": 14.64810393, "ECCENTRICITY": 0.00027387, "INCLINATION": 98.1254, "RA_OF_ASC_NODE": 56.9262, "ARG_OF_PERICENTER": 281.3181, "MEAN_ANOMALY": 78.7715, "EPHEMERIS_TYPE": 0, "CLASSIFICATION_TYPE": "U", "NORAD_CAT_ID": 33331, "ELEMENT_SET_NO": 999, "REV_AT_EPOCH": 92269, "BSTAR": 0.00019285508, "MEAN_MOTION_DOT": 9.81e-06, "MEAN_MOTION_DDOT": 0}, "tle": {"line1": "1 33331U 08042A   25345.63158202  .00000981  00000+0  19286-3 0  9999", "line2": "2 33331  98.1254  56.9262 0002738 281.3181  78.7715 14.64810393922690"}}, "geometry": {"type": "Point", "coordinates": [-130.23345269777863, -42.30603411323437]}}, {"type": "Feature", "properties": {"norad_id": 33396, "name": "THEOS", "group": "resource", "lat": -26.754584086961852, "lon": -140.309015302193, "alt_km": 831.0097213617837, "timestamp": "2025-12-11T22:43:46.928128+00:00", "meta": {"OBJECT_NAME": "THEOS", "OBJECT_ID": "2008-049A", "EPOCH": "2025-12-11T14:59:39.334848", "MEAN_MOTION": 14.20097143, "ECCENTRICITY": 0.00011545, "INCLINATION": 98.5864, "RA_OF_ASC_NODE": 43.7467, "ARG_OF_PERICENTER": 95.4393, "MEAN_ANOMALY": 264.6915, "EPHEMERIS_TYPE": 0, "CLASSIFICATION_TYPE": "U", "NORAD_CAT_ID": 33396, "ELEMENT_SET_NO": 999, "REV_AT_EPOCH": 89134, "BSTAR": 0.00016975943, "MEAN_MOTION_DOT": 3.19e-06, "MEAN_MOTION_DDOT": 0}, "tle": {"line1": "1 33396U 08049A   25345.62476082  .00000319  00000+0  16976-3 0  9993", "line2": "2 33396  98.5864  43.7467 0001154  95.4393 264.6915 14.20097143891340"}}, "geometry": {"type": "Point", "coordinates": [-140.309015302193, -26.754584086961852]}}, {"type": "Feature", "properties": {"norad_id": 33412, "name": "COSMO-SKYMED 3", "group": "resource", "lat": 50.50347225045744, "lon": -173.30702229309276, "alt_km": 552.2676218169727, "timestamp": "2025-12-11T22:43:46.928139+00:00", "meta": {"OBJECT_NAME": "COSMO-SKYMED 3", "OBJECT_ID": "2008-054A", "EPOCH": "2025-12-11T14:31:33.504960", "MEAN_MOTION": 15.05338479, "ECCENTRICITY": 0.00159804, "INCLINATION": 97.8468, "RA_OF_ASC_NODE": 195.9775, "ARG_OF_PERICENTER": 177.9063, "MEAN_ANOMALY": 182.2233, "EPHEMERIS_TYPE": 0, "CLASSIFICATION_TYPE": "U", "NORAD_CAT_ID": 33412, "ELEMENT_SET_NO": 999, "REV_AT_EPOCH": 92870, "BSTAR": 0.00054822514, "MEAN_MOTION_DOT": 7.811e-05, "MEAN_MOTION_DDOT": 0}, "tle": {"line1": "1 33412U 08054A   25345.60524890  .00007811  00000+0  54823-3 0  9994", "line2": "2 33412  97.8468 195.9775 0015980 177.9063 182.2233 15.05338479928708"}}, "geometry": {"type": "Point", "coordinates": [-173.30702229309276, 50.50347225045744]}}, {"type": "Feature", "properties": {"norad_id": 33446, "name": "YAOGAN-4", "group": "resource", "lat": 79.16304958482256, "lon": 142.6910514908039, "alt_km": 619.7982726894079, "timestamp": "2025-12-11T22:43:46.928150+00:00", "meta": {"OBJECT_NAME": "YAOGAN-4", "OBJECT_ID": "2008-061A", "EPOCH": "2025-12-11T12:34:26.703552", "MEAN_MOTION": 14.82676279, "ECCENTRICITY": 0.00136536, "INCLINATION": 97.9178, "RA_OF_ASC_NODE": 275.6352, "ARG_OF_PERICENTER": 327.7315, "MEAN_ANOMALY": 32.3062, "EPHEMERIS_TYPE": 0, "CLASSIFICATION_TYPE": "U", "NORAD_CAT_ID": 33446, "ELEMENT_SET_NO": 999, "REV_AT_EPOCH": 91785, "BSTAR": 0.00029221942, "MEAN_MOTION_DOT": 2.306e-05, "MEAN_MOTION_DDOT": 0}, "tle": {"line1": "1 33446U 08061A   25345.52392018  .00002306  00000+0  29222-3 0  9994", "line2": "2 33446  97.9178 275.6352 0013653 327.7315  32.3062 14.82676279917857"}}, "geometry": {"type": "Point", "coordinates": [142.6910514908039, 79.16304958482256]}}]}